[{"OBJECT_NAME":"CHUANGXIN 1 (CX-1)","OBJECT_ID":"2003-049B","EPOCH":"2026-03-09T23:37:11.328096","MEAN_MOTION":14.48529163,"ECCENTRICITY":0.00134088,"INCLINATION":98.5179,"RA_OF_ASC_NODE":327.2835,"ARG_OF_PERICENTER":121.0909,"MEAN_ANOMALY":239.1602,"EPHEMERIS_TYPE":0,"CLASSIFICATION_TYPE":"U","NORAD_CAT_ID":28058,"ELEMENT_SET_NO":999,"REV_AT_EPOCH":18191,"BSTAR":9.8543692e-5,"MEAN_MOTION_DOT":3.25e-6,"MEAN_MOTION_DDOT":0},{"OBJECT_NAME":"CZ-6A DEB","OBJECT_ID":"2022-151MB","EPOCH":"2026-03-09T17:28:09.549120","MEAN_MOTION":14.65199227,"ECCENTRICITY":0.01237067,"INCLINATION":98.6318,"RA_OF_ASC_NODE":138.7032,"ARG_OF_PERICENTER":216.8349,"MEAN_ANOMALY":142.4308,"EPHEMERIS_TYPE":0,"CLASSIFICATION_TYPE":"U","NORAD_CAT_ID":54575,"ELEMENT_SET_NO":999,"REV_AT_EPOCH":17547,"BSTAR":0.0015189456,"MEAN_MOTION_DOT":9.101e-5,"MEAN_MOTION_DDOT":0}]
